0 COSMOS 1818
1 17369U 87011A   13282.49235289 -.00000007  00000-0  35083-4 0   364
2 17369 065.0111 263.7369 0021418 264.1908 240.2781 14.31273419445882
0 COSMOS 1818
1 17369U 87011A   13283.54100237 -.00000044  00000-0  21154-4 0   371
2 17369 065.0111 260.8012 0021397 264.1076 243.2351 14.31273748446036
0 COSMOS 1818
1 17369U 87011A   13286.47382331 -.00000072  00000-0  10615-4 0   396
2 17369 065.0115 252.5905 0021318 263.9603 233.9297 14.31274352446458
0 COSMOS 1818
1 17369U 87011A   13288.13962237  .00000002  00000-0  38450-4 0   401
2 17369 065.0118 247.9271 0021314 263.7744 176.6911 14.31274228446699
0 COSMOS 1818
1 17369U 87011A   13289.41023236 -.00000016  00000-0  31761-4 0   415
2 17369 065.0119 244.3702 0021281 263.6979 243.2376 14.31274372446878
0 COSMOS 1818
1 17369U 87011A   13290.45693317 -.00000016  00000-0  31754-4 0   427
2 17369 065.0120 241.4401 0021259 263.6534 236.1200 14.31274664447025
0 COSMOS 1818
1 17369U 87011A   13292.19486704 -.00000015  00000-0  32051-4 0   431
2 17369 065.0120 236.5751 0021255 263.5139 190.4875 14.31274854447272
0 COSMOS 1818
1 17369U 87011A   13293.39104369 -.00000000  00000-0  37687-4 0   443
2 17369 065.0120 233.2267 0021236 263.4508 233.5251 14.31274929447445
0 COSMOS 1818
1 17369U 87011A   13294.76419191 -.00000004  00000-0  36346-4 0   453
2 17369 065.0120 229.3830 0021210 263.3463 108.4029 14.31275247447647
0 COSMOS 1818
1 17369U 87011A   13296.17815309 -.00000052  00000-0  18218-4 0   463
2 17369 065.0120 225.4250 0021189 263.2320 193.5673 14.31275713447846
